STARLINK-1693_new
1 16543C 20070M   21326.15457284  .00002229  00000-0  14933-3 0  3263
2 16543  53.0540  18.0441 0001412  67.4436  73.5519 15.06396980    15
STARLINK-1693_old
1 26543C 20070M   21325.17398081  .00000807  00000-0  54109-4 0  3252
2 26543  53.0546  22.4462 0001395  68.5678 151.7317 15.06388462    14
